OBJECT_NAME,OBJECT_ID,EPOCH,MEAN_MOTION,ECCENTRICITY,INCLINATION,RA_OF_ASC_NODE,ARG_OF_PERICENTER,MEAN_ANOMALY,EPHEMERIS_TYPE,CLASSIFICATION_TYPE,NORAD_CAT_ID,ELEMENT_SET_NO,REV_AT_EPOCH,BSTAR,MEAN_MOTION_DOT,MEAN_MOTION_DDOT
CZ-2C R/B,2007-010B,2026-07-18T19:58:18.617952,14.20282372,.0057724,98.4121,306.6390,272.9725,86.4848,0,U,31114,999,99833,.40087E-4,.45E-6,0
COSMO-SKYMED 1,2007-023A,2026-07-18T19:32:34.097856,14.97230695,.0001707,97.8850,31.9380,100.1552,259.9862,0,U,31598,999,3452,.1424E-3,.1588E-4,0
COSMOS 2428,2007-029A,2026-07-18T12:09:00.014688,14.12936588,.00072489,70.9383,288.7199,74.7600,285.4322,0,U,31792,999,98257,.17768496E-3,.283E-5,0
SL-16 R/B,2007-029B,2026-07-18T14:10:33.200256,14.14853609,.0001915,70.9742,257.2149,257.3549,264.6800,0,U,31793,999,98388,.17099E-3,.282E-5,0
KORONAS-FOTON,2009-003A,2026-07-18T19:01:40.466208,15.46354152,.0011859,82.4309,139.2756,51.2618,308.9689,0,U,33504,999,96598,.14788E-3,.7357E-4,0
CZ-2C R/B,2011-030B,2026-07-18T20:16:39.713376,14.81536151,.0050698,97.8671,154.6647,283.9592,97.6939,0,U,37731,999,80951,.61403E-4,.436E-5,0
H-2A R/B,2012-025E,2026-07-18T20:45:41.923584,14.95842889,.0042657,98.4846,177.6291,242.6197,117.0678,0,U,38341,999,76782,.73468E-4,.764E-5,0
SHIJIAN-16 (SJ-16),2013-057A,2026-07-18T21:00:47.930400,14.92675113,.0015666,74.9739,296.6637,155.7621,204.4308,0,U,39358,999,69107,.25078E-4,.23E-5,0
SL-4 R/B,2014-021B,2026-07-18T19:32:29.193792,15.42526441,.0089505,51.6064,55.7601,221.8175,137.5948,0,U,39679,999,67649,.12682E-3,.5995E-4,0
ALOS-2,2014-029A,2026-07-18T20:36:56.051712,14.79472275,.0001594,97.9230,296.5702,90.6510,269.4884,0,U,39766,999,65626,.76232E-4,.518E-5,0
YAOGAN-29,2015-069A,2026-07-18T21:18:03.831840,14.83105913,.0000409,98.0015,228.5686,359.9129,0.2084,0,U,41038,999,57532,-.29723E-4,-.296E-5,0
ASTRO-H (HITOMI),2016-012A,2026-07-18T10:06:14.638464,15.10639796,.00096469,30.9977,232.4505,207.7740,152.2384,0,U,41337,999,57201,.64174204E-4,.1185E-4,0
HXMT (HUIYAN),2017-034A,2026-07-18T20:05:39.619104,15.18705784,.0031836,43.0153,6.7731,343.6262,16.3556,0,U,42758,999,50247,.99358E-4,.1877E-4,0
SAOCOM 1A,2018-076A,2026-07-18T19:09:51.154272,14.82148091,.0001429,97.8885,26.0874,86.3308,273.8068,0,U,43641,999,42078,.27032E-4,.163E-5,0
H-2A R/B,2018-084L,2026-07-18T15:41:10.099104,15.46284035,.002033,98.8523,85.4439,287.4775,72.4248,0,U,43682,999,42598,.22575E-3,.11086E-3,0
SAOCOM 1B,2020-059A,2026-07-18T19:54:46.302048,14.82146700,.000152,97.8891,25.2147,83.4282,276.7104,0,U,46265,999,31817,.84573E-4,.621E-5,0
CSS (TIANHE),2021-035A,2026-07-18T20:50:29.010048,15.58184623,.0002055,41.4683,129.5686,305.4241,54.6405,0,U,48274,999,29811,.15417E-3,.11657E-3,0
COSMOS 2550,2021-056A,2026-07-18T20:17:44.276640,15.33849505,.0008531,67.1440,4.1401,269.7692,90.2485,0,U,48865,999,28357,.91068E-4,.2807E-4,0
CZ-2C R/B,2022-058K,2026-07-18T12:07:07.127040,15.64029106,.00301428,50.1860,0.2868,36.5675,323.7350,0,U,52794,999,23054,.24205197E-3,.23418E-3,0
CZ-2C R/B,2022-132E,2026-07-17T23:56:16.304352,15.75241570,.00089342,97.2889,207.4843,329.3088,30.7654,0,U,54039,999,21079,.29840195E-3,.44818E-3,0
GSLV R/B,2022-138AN,2026-07-18T19:05:34.039104,14.97392548,.0023116,87.3816,122.3705,40.3218,319.9722,0,U,54149,999,20354,.12718E-3,.1515E-4,0
XRISM,2023-137A,2026-07-18T04:56:11.328288,15.12682622,.00078538,31.0010,158.6362,276.0934,83.8810,0,U,57800,999,15756,.12223057E-3,.2291E-4,0
ACS3,2024-077B,2026-07-18T04:39:56.685312,13.95327555,.01287573,97.1755,111.1141,33.4328,327.4885,0,U,59588,999,11236,.43059113E-2,.6221E-4,0
SPACEMOBILE-003,2024-163A,2026-07-18T04:05:59.019072,15.20713856,.00044615,52.9670,166.9598,203.3197,156.7595,0,U,61045,999,10248,.71564826E-4,.1268E-4,0
SPACEMOBILE-005,2024-163B,2026-07-18T06:51:23.658336,15.20722937,.00085608,52.9757,166.3840,205.2960,154.7616,0,U,61046,999,10249,.11125988E-3,.2152E-4,0
SPACEMOBILE-001,2024-163C,2026-07-18T06:48:59.717664,15.20703424,.0007095,52.9715,166.1008,203.8926,156.1740,0,U,61047,999,10249,.13735E-4,-.22E-6,0
SPACEMOBILE-002,2024-163D,2026-07-18T06:25:45.243264,15.20679207,.00054138,52.9785,166.2157,203.1224,156.9528,0,U,61048,999,10249,-.42131939E-3,-.9691E-4,0
SPACEMOBILE-004,2024-163E,2026-07-18T07:35:11.622336,15.20746753,.0005789,52.9719,165.7693,237.6341,122.4093,0,U,61049,999,10250,.48447E-3,.10492E-3,0
CZ-8A R/B,2025-231K,2026-07-18T05:11:13.854912,14.30162663,.01165517,50.0036,267.3063,333.2524,26.2411,0,U,66004,999,3938,.39118519E-4,-.55E-6,0
SZ-21 MODULE,2025-246C,2026-07-18T19:13:18.204960,15.79063200,.0008931,41.4718,110.0271,244.3846,115.6077,0,U,66515,999,3873,.18525E-3,.33868E-3,0
